{
  "type": "FeatureCollection",
  "features": [
    {
      "type": "Feature",
      "properties": {
        "norad_id": 66635,
        "name": "STARLINK-35955",
        "group": "last-30-days",
        "lat": -53.014626032745355,
        "lon": 120.81334985915255,
        "alt_km": 374.9997862078653,
        "timestamp": "2025-12-08T23:34:02.740812+00:00",
        "meta_object_name": "STARLINK-35955",
        "meta_object_id": "2025-271U",
        "meta_epoch": "2025-12-08T14:00:01.999872",
        "meta_mean_motion": 15.67988896,
        "meta_eccentricity": 0.00011854,
        "meta_inclination": 53.1593,
        "meta_ra_of_asc_node": 207.3202,
        "meta_arg_of_pericenter": 109.4767,
        "meta_mean_anomaly": 73.6056,
        "meta_ephemeris_type": 0,
        "meta_classification_type": "U",
        "meta_norad_cat_id": 66635,
        "meta_element_set_no": 999,
        "meta_rev_at_epoch": 357,
        "meta_bstar": -0.01926569,
        "meta_mean_motion_dot": -0.01925745,
        "meta_mean_motion_ddot": 0,
        "tle_line1": "1 66635U 25271U   25342.58335648 -.01925745  00000+0 -19266-1 0  9990",
        "tle_line2": "2 66635  53.1593 207.3202 0001185 109.4767  73.6056 15.67988896  3578"
      },
      "geometry": {
        "type": "Point",
        "coordinates": [
          120.81334985915255,
          -53.014626032745355
        ]
      }
    },
    {
      "type": "Feature",
      "properties": {
        "norad_id": 66636,
        "name": "STARLINK-35968",
        "group": "last-30-days",
        "lat": -52.82731759410876,
        "lon": 123.96763054299403,
        "alt_km": 375.0456875394075,
        "timestamp": "2025-12-08T23:34:02.740822+00:00",
        "meta_object_name": "STARLINK-35968",
        "meta_object_id": "2025-271V",
        "meta_epoch": "2025-12-08T14:00:01.999872",
        "meta_mean_motion": 15.67985017,
        "meta_eccentricity": 0.0001233,
        "meta_inclination": 53.1594,
        "meta_ra_of_asc_node": 207.316,
        "meta_arg_of_pericenter": 105.6198,
        "meta_mean_anomaly": 79.3847,
        "meta_ephemeris_type": 0,
        "meta_classification_type": "U",
        "meta_norad_cat_id": 66636,
        "meta_element_set_no": 999,
        "meta_rev_at_epoch": 357,
        "meta_bstar": -0.019243573,
        "meta_mean_motion_dot": -0.0192355,
        "meta_mean_motion_ddot": 0,
        "tle_line1": "1 66636U 25271V   25342.58335648 -.01923550  00000+0 -19244-1 0  9999",
        "tle_line2": "2 66636  53.1594 207.3160 0001233 105.6198  79.3847 15.67985017  3576"
      },
      "geometry": {
        "type": "Point",
        "coordinates": [
          123.96763054299403,
          -52.82731759410876
        ]
      }
    },
    {
      "type": "Feature",
      "properties": {
        "norad_id": 66637,
        "name": "STARLINK-35953",
        "group": "last-30-days",
        "lat": -52.556832108313415,
        "lon": 127.08768456698826,
        "alt_km": 374.98493203417,
        "timestamp": "2025-12-08T23:34:02.740832+00:00",
        "meta_object_name": "STARLINK-35953",
        "meta_object_id": "2025-271W",
        "meta_epoch": "2025-12-08T14:00:01.999872",
        "meta_mean_motion": 15.67986887,
        "meta_eccentricity": 0.00011508,
        "meta_inclination": 53.1592,
        "meta_ra_of_asc_node": 207.312,
        "meta_arg_of_pericenter": 107.8498,
        "meta_mean_anomaly": 79.0702,
        "meta_ephemeris_type": 0,
        "meta_classification_type": "U",
        "meta_norad_cat_id": 66637,
        "meta_element_set_no": 999,
        "meta_rev_at_epoch": 357,
        "meta_bstar": -0.019270838,
        "meta_mean_motion_dot": -0.01926035,
        "meta_mean_motion_ddot": 0,
        "tle_line1": "1 66637U 25271W   25342.58335648 -.01926035  00000+0 -19271-1 0  9991",
        "tle_line2": "2 66637  53.1592 207.3120 0001150 107.8498  79.0702 15.67986887  3579"
      },
      "geometry": {
        "type": "Point",
        "coordinates": [
          127.08768456698826,
          -52.556832108313415
        ]
      }
    },
    {
      "type": "Feature",
      "properties": {
        "norad_id": 66638,
        "name": "STARLINK-35972",
        "group": "last-30-days",
        "lat": -52.20568209869079,
        "lon": 130.16319430133467,
        "alt_km": 374.94807461204437,
        "timestamp": "2025-12-08T23:34:02.740842+00:00",
        "meta_object_name": "STARLINK-35972",
        "meta_object_id": "2025-271X",
        "meta_epoch": "2025-12-08T14:00:01.999872",
        "meta_mean_motion": 15.67983713,
        "meta_eccentricity": 0.00011179,
        "meta_inclination": 53.1593,
        "meta_ra_of_asc_node": 207.3086,
        "meta_arg_of_pericenter": 109.3226,
        "meta_mean_anomaly": 79.5134,
        "meta_ephemeris_type": 0,
        "meta_classification_type": "U",
        "meta_norad_cat_id": 66638,
        "meta_element_set_no": 999,
        "meta_rev_at_epoch": 357,
        "meta_bstar": -0.019204994,
        "meta_mean_motion_dot": -0.01919963,
        "meta_mean_motion_ddot": 0,
        "tle_line1": "1 66638U 25271X   25342.58335648 -.01919963  00000+0 -19205-1 0  9991",
        "tle_line2": "2 66638  53.1593 207.3086 0001117 109.3226  79.5134 15.67983713  3570"
      },
      "geometry": {
        "type": "Point",
        "coordinates": [
          130.16319430133467,
          -52.20568209869079
        ]
      }
    },
    {
      "type": "Feature",
      "properties": {
        "norad_id": 66639,
        "name": "STARLINK-35908",
        "group": "last-30-days",
        "lat": -51.77518002388102,
        "lon": 133.1864357023335,
        "alt_km": 374.94814843495715,
        "timestamp": "2025-12-08T23:34:02.740856+00:00",
        "meta_object_name": "STARLINK-35908",
        "meta_object_id": "2025-271Y",
        "meta_epoch": "2025-12-08T14:00:01.999872",
        "meta_mean_motion": 15.67985349,
        "meta_eccentricity": 0.0001122,
        "meta_inclination": 53.1592,
        "meta_ra_of_asc_node": 207.3042,
        "meta_arg_of_pericenter": 107.8654,
        "meta_mean_anomaly": 82.8882,
        "meta_ephemeris_type": 0,
        "meta_classification_type": "U",
        "meta_norad_cat_id": 66639,
        "meta_element_set_no": 999,
        "meta_rev_at_epoch": 357,
        "meta_bstar": -0.01924144,
        "meta_mean_motion_dot": -0.01923306,
        "meta_mean_motion_ddot": 0,
        "tle_line1": "1 66639U 25271Y   25342.58335648 -.01923306  00000+0 -19241-1 0  9998",
        "tle_line2": "2 66639  53.1592 207.3042 0001122 107.8654  82.8882 15.67985349  3570"
      },
      "geometry": {
        "type": "Point",
        "coordinates": [
          133.1864357023335,
          -51.77518002388102
        ]
      }
    },
    {
      "type": "Feature",
      "properties": {
        "norad_id": 66640,
        "name": "STARLINK-35921",
        "group": "last-30-days",
        "lat": -51.268640533401225,
        "lon": 136.1478696860066,
        "alt_km": 374.94049013094536,
        "timestamp": "2025-12-08T23:34:02.740866+00:00",
        "meta_object_name": "STARLINK-35921",
        "meta_object_id": "2025-271Z",
        "meta_epoch": "2025-12-08T14:00:01.999872",
        "meta_mean_motion": 15.67979778,
        "meta_eccentricity": 0.0001138,
        "meta_inclination": 53.1592,
        "meta_ra_of_asc_node": 207.3006,
        "meta_arg_of_pericenter": 110.2995,
        "meta_mean_anomaly": 82.3731,
        "meta_ephemeris_type": 0,
        "meta_classification_type": "U",
        "meta_norad_cat_id": 66640,
        "meta_element_set_no": 999,
        "meta_rev_at_epoch": 357,
        "meta_bstar": -0.019154955,
        "meta_mean_motion_dot": -0.01915272,
        "meta_mean_motion_ddot": 0,
        "tle_line1": "1 66640U 25271Z   25342.58335648 -.01915272  00000+0 -19155-1 0  9997",
        "tle_line2": "2 66640  53.1592 207.3006 0001138 110.2995  82.3731 15.67979778  3572"
      },
      "geometry": {
        "type": "Point",
        "coordinates": [
          136.1478696860066,
          -51.268640533401225
        ]
      }
    },
    {
      "type": "Feature",
      "properties": {
        "norad_id": 66641,
        "name": "STARLINK-35923",
        "group": "last-30-days",
        "lat": -48.54382441484562,
        "lon": 147.25032437121118,
        "alt_km": 374.9094838217243,
        "timestamp": "2025-12-08T23:34:02.740876+00:00",
        "meta_object_name": "STARLINK-35923",
        "meta_object_id": "2025-271AA",
        "meta_epoch": "2025-12-08T14:00:01.999872",
        "meta_mean_motion": 15.67983482,
        "meta_eccentricity": 0.00012007,
        "meta_inclination": 53.1593,
        "meta_ra_of_asc_node": 207.2836,
        "meta_arg_of_pericenter": 117.7197,
        "meta_mean_anomaly": 82.6179,
        "meta_ephemeris_type": 0,
        "meta_classification_type": "U",
        "meta_norad_cat_id": 66641,
        "meta_element_set_no": 999,
        "meta_rev_at_epoch": 357,
        "meta_bstar": -0.019203745,
        "meta_mean_motion_dot": -0.01919895,
        "meta_mean_motion_ddot": 0,
        "tle_line1": "1 66641U 25271AA  25342.58335648 -.01919895  00000+0 -19204-1 0  9998",
        "tle_line2": "2 66641  53.1593 207.2836 0001200 117.7197  82.6179 15.67983482  3576"
      },
      "geometry": {
        "type": "Point",
        "coordinates": [
          147.25032437121118,
          -48.54382441484562
        ]
      }
    }
  ]
}